[{"OBJECT_NAME":"YAOGAN-17 01B","OBJECT_ID":"2013-046B","EPOCH":"2026-03-09T23:28:17.968800","MEAN_MOTION":13.45462067,"ECCENTRICITY":0.04175789,"INCLINATION":63.3912,"RA_OF_ASC_NODE":346.726,"ARG_OF_PERICENTER":10.9429,"MEAN_ANOMALY":350.0341,"EPHEMERIS_TYPE":0,"CLASSIFICATION_TYPE":"U","NORAD_CAT_ID":39240,"ELEMENT_SET_NO":999,"REV_AT_EPOCH":61498,"BSTAR":9.3249137e-5,"MEAN_MOTION_DOT":3.0e-8,"MEAN_MOTION_DDOT":0},{"OBJECT_NAME":"FENGYUN 1C DEB","OBJECT_ID":"1999-025AHN","EPOCH":"2026-03-09T05:22:16.175712","MEAN_MOTION":14.26289507,"ECCENTRICITY":0.00646603,"INCLINATION":99.0653,"RA_OF_ASC_NODE":167.6947,"ARG_OF_PERICENTER":223.6199,"MEAN_ANOMALY":165.4818,"EPHEMERIS_TYPE":0,"CLASSIFICATION_TYPE":"U","NORAD_CAT_ID":30500,"ELEMENT_SET_NO":999,"REV_AT_EPOCH":97914,"BSTAR":0.0028512909,"MEAN_MOTION_DOT":6.953e-5,"MEAN_MOTION_DDOT":0}]
